CCSDS_OMM_VERS = 2.0
CREATION_DATE  = 
ORIGINATOR     = 

OBJECT_NAME    = STARLINK-34934
OBJECT_ID      = 2025-224R
CENTER_NAME    = EARTH
REF_FRAME      = TEME
TIME_SYSTEM    = UTC
MEAN_ELEMENT_THEORY = SGP/SGP4

EPOCH          = 2025-11-04T01:40:34.723776
MEAN_MOTION    = 15.49342052
ECCENTRICITY   = .0000777
INCLINATION    = 53.1618
RA_OF_ASC_NODE = 236.0849
ARG_OF_PERICENTER = 81.1350
MEAN_ANOMALY   = 278.9747

EPHEMERIS_TYPE = 0
CLASSIFICATION_TYPE = U
NORAD_CAT_ID   = 65897
ELEMENT_SET_NO = 999
REV_AT_EPOCH   = 557
BSTAR          = .13619E-2
MEAN_MOTION_DOT = .76123E-3
MEAN_MOTION_DDOT = 0

CCSDS_OMM_VERS = 2.0
CREATION_DATE  = 
ORIGINATOR     = 

OBJECT_NAME    = STARLINK-34936
OBJECT_ID      = 2025-224S
CENTER_NAME    = EARTH
REF_FRAME      = TEME
TIME_SYSTEM    = UTC
MEAN_ELEMENT_THEORY = SGP/SGP4

EPOCH          = 2025-11-04T01:41:04.454016
MEAN_MOTION    = 15.49333290
ECCENTRICITY   = .0001323
INCLINATION    = 53.1618
RA_OF_ASC_NODE = 236.0881
ARG_OF_PERICENTER = 94.5294
MEAN_ANOMALY   = 265.5866

EPHEMERIS_TYPE = 0
CLASSIFICATION_TYPE = U
NORAD_CAT_ID   = 65898
ELEMENT_SET_NO = 999
REV_AT_EPOCH   = 562
BSTAR          = .14839E-2
MEAN_MOTION_DOT = .83032E-3
MEAN_MOTION_DDOT = 0

CCSDS_OMM_VERS = 2.0
CREATION_DATE  = 
ORIGINATOR     = 

OBJECT_NAME    = STARLINK-35272
OBJECT_ID      = 2025-224T
CENTER_NAME    = EARTH
REF_FRAME      = TEME
TIME_SYSTEM    = UTC
MEAN_ELEMENT_THEORY = SGP/SGP4

EPOCH          = 2025-11-04T01:40:05.196576
MEAN_MOTION    = 15.49333233
ECCENTRICITY   = .0000995
INCLINATION    = 53.1623
RA_OF_ASC_NODE = 236.0815
ARG_OF_PERICENTER = 85.4728
MEAN_ANOMALY   = 274.6395

EPHEMERIS_TYPE = 0
CLASSIFICATION_TYPE = U
NORAD_CAT_ID   = 65899
ELEMENT_SET_NO = 999
REV_AT_EPOCH   = 561
BSTAR          = .14149E-2
MEAN_MOTION_DOT = .79109E-3
MEAN_MOTION_DDOT = 0

CCSDS_OMM_VERS = 2.0
CREATION_DATE  = 
ORIGINATOR     = 

OBJECT_NAME    = STARLINK-35264
OBJECT_ID      = 2025-224U
CENTER_NAME    = EARTH
REF_FRAME      = TEME
TIME_SYSTEM    = UTC
MEAN_ELEMENT_THEORY = SGP/SGP4

EPOCH          = 2025-11-04T01:39:35.411040
MEAN_MOTION    = 15.49341402
ECCENTRICITY   = .0001208
INCLINATION    = 53.1614
RA_OF_ASC_NODE = 236.0797
ARG_OF_PERICENTER = 89.7290
MEAN_ANOMALY   = 270.3857

EPHEMERIS_TYPE = 0
CLASSIFICATION_TYPE = U
NORAD_CAT_ID   = 65900
ELEMENT_SET_NO = 999
REV_AT_EPOCH   = 561
BSTAR          = .15431E-2
MEAN_MOTION_DOT = .86425E-3
MEAN_MOTION_DDOT = 0

CCSDS_OMM_VERS = 2.0
CREATION_DATE  = 
ORIGINATOR     = 

OBJECT_NAME    = STARLINK-35249
OBJECT_ID      = 2025-224V
CENTER_NAME    = EARTH
REF_FRAME      = TEME
TIME_SYSTEM    = UTC
MEAN_ELEMENT_THEORY = SGP/SGP4

EPOCH          = 2025-11-04T01:39:05.723136
MEAN_MOTION    = 15.49344569
ECCENTRICITY   = .0001451
INCLINATION    = 53.1621
RA_OF_ASC_NODE = 236.0783
ARG_OF_PERICENTER = 81.8023
MEAN_ANOMALY   = 278.3150

EPHEMERIS_TYPE = 0
CLASSIFICATION_TYPE = U
NORAD_CAT_ID   = 65901
ELEMENT_SET_NO = 999
REV_AT_EPOCH   = 560
BSTAR          = .14821E-2
MEAN_MOTION_DOT = .82963E-3
MEAN_MOTION_DDOT = 0

CCSDS_OMM_VERS = 2.0
CREATION_DATE  = 
ORIGINATOR     = 

OBJECT_NAME    = STARLINK-35278
OBJECT_ID      = 2025-224W
CENTER_NAME    = EARTH
REF_FRAME      = TEME
TIME_SYSTEM    = UTC
MEAN_ELEMENT_THEORY = SGP/SGP4

EPOCH          = 2025-11-04T04:00:01.998720
MEAN_MOTION    = 15.49303605
ECCENTRICITY   = .0001435
INCLINATION    = 53.1609
RA_OF_ASC_NODE = 235.5985
ARG_OF_PERICENTER = 78.8589
MEAN_ANOMALY   = 113.2217

EPHEMERIS_TYPE = 0
CLASSIFICATION_TYPE = U
NORAD_CAT_ID   = 65902
ELEMENT_SET_NO = 999
REV_AT_EPOCH   = 570
BSTAR          = -.6096E-3
MEAN_MOTION_DOT = -.34198E-3
MEAN_MOTION_DDOT = 0

CCSDS_OMM_VERS = 2.0
CREATION_DATE  = 
ORIGINATOR     = 

OBJECT_NAME    = STARLINK-35210
OBJECT_ID      = 2025-224X
CENTER_NAME    = EARTH
REF_FRAME      = TEME
TIME_SYSTEM    = UTC
MEAN_ELEMENT_THEORY = SGP/SGP4

EPOCH          = 2025-11-04T01:38:06.337824
MEAN_MOTION    = 15.49348370
ECCENTRICITY   = .000117
INCLINATION    = 53.1614
RA_OF_ASC_NODE = 236.0738
ARG_OF_PERICENTER = 71.6960
MEAN_ANOMALY   = 288.4176

EPHEMERIS_TYPE = 0
CLASSIFICATION_TYPE = U
NORAD_CAT_ID   = 65903
ELEMENT_SET_NO = 999
REV_AT_EPOCH   = 560
BSTAR          = .17748E-2
MEAN_MOTION_DOT = .99664E-3
MEAN_MOTION_DDOT = 0

CCSDS_OMM_VERS = 2.0
CREATION_DATE  = 
ORIGINATOR     = 

OBJECT_NAME    = STARLINK-35348
OBJECT_ID      = 2025-224Y
CENTER_NAME    = EARTH
REF_FRAME      = TEME
TIME_SYSTEM    = UTC
MEAN_ELEMENT_THEORY = SGP/SGP4

EPOCH          = 2025-11-04T01:38:36.093120
MEAN_MOTION    = 15.49338141
ECCENTRICITY   = .0000977
INCLINATION    = 53.1610
RA_OF_ASC_NODE = 236.0760
ARG_OF_PERICENTER = 64.7126
MEAN_ANOMALY   = 295.3984

EPHEMERIS_TYPE = 0
CLASSIFICATION_TYPE = U
NORAD_CAT_ID   = 65904
ELEMENT_SET_NO = 999
REV_AT_EPOCH   = 557
BSTAR          = .14012E-2
MEAN_MOTION_DOT = .78346E-3
MEAN_MOTION_DDOT = 0

CCSDS_OMM_VERS = 2.0
CREATION_DATE  = 
ORIGINATOR     = 

OBJECT_NAME    = STARLINK-35380
OBJECT_ID      = 2025-224Z
CENTER_NAME    = EARTH
REF_FRAME      = TEME
TIME_SYSTEM    = UTC
MEAN_ELEMENT_THEORY = SGP/SGP4

EPOCH          = 2025-11-04T01:37:07.084704
MEAN_MOTION    = 15.49346268
ECCENTRICITY   = .0001241
INCLINATION    = 53.1608
RA_OF_ASC_NODE = 236.0687
ARG_OF_PERICENTER = 93.2612
MEAN_ANOMALY   = 266.8539

EPHEMERIS_TYPE = 0
CLASSIFICATION_TYPE = U
NORAD_CAT_ID   = 65905
ELEMENT_SET_NO = 999
REV_AT_EPOCH   = 557
BSTAR          = .16364E-2
MEAN_MOTION_DOT = .91757E-3
MEAN_MOTION_DDOT = 0

CCSDS_OMM_VERS = 2.0
CREATION_DATE  = 
ORIGINATOR     = 

OBJECT_NAME    = STARLINK-35385
OBJECT_ID      = 2025-224AA
CENTER_NAME    = EARTH
REF_FRAME      = TEME
TIME_SYSTEM    = UTC
MEAN_ELEMENT_THEORY = SGP/SGP4

EPOCH          = 2025-11-04T01:36:07.709760
MEAN_MOTION    = 15.49333055
ECCENTRICITY   = .0001209
INCLINATION    = 53.1605
RA_OF_ASC_NODE = 236.0633
ARG_OF_PERICENTER = 92.2962
MEAN_ANOMALY   = 267.8185

EPHEMERIS_TYPE = 0
CLASSIFICATION_TYPE = U
NORAD_CAT_ID   = 65906
ELEMENT_SET_NO = 999
REV_AT_EPOCH   = 560
BSTAR          = .14564E-2
MEAN_MOTION_DOT = .81472E-3
MEAN_MOTION_DDOT = 0

CCSDS_OMM_VERS = 2.0
CREATION_DATE  = 
ORIGINATOR     = 

OBJECT_NAME    = STARLINK-35347
OBJECT_ID      = 2025-224AB
CENTER_NAME    = EARTH
REF_FRAME      = TEME
TIME_SYSTEM    = UTC
MEAN_ELEMENT_THEORY = SGP/SGP4

EPOCH          = 2025-11-04T01:35:38.026176
MEAN_MOTION    = 15.49336693
ECCENTRICITY   = .0000874
INCLINATION    = 53.1609
RA_OF_ASC_NODE = 236.0605
ARG_OF_PERICENTER = 77.1514
MEAN_ANOMALY   = 282.9593

EPHEMERIS_TYPE = 0
CLASSIFICATION_TYPE = U
NORAD_CAT_ID   = 65907
ELEMENT_SET_NO = 999
REV_AT_EPOCH   = 560
BSTAR          = .14566E-2
MEAN_MOTION_DOT = .81491E-3
MEAN_MOTION_DDOT = 0

CCSDS_OMM_VERS = 2.0
CREATION_DATE  = 
ORIGINATOR     = 

OBJECT_NAME    = STARLINK-35329
OBJECT_ID      = 2025-224AC
CENTER_NAME    = EARTH
REF_FRAME      = TEME
TIME_SYSTEM    = UTC
MEAN_ELEMENT_THEORY = SGP/SGP4

EPOCH          = 2025-11-04T01:36:37.389888
MEAN_MOTION    = 15.49336387
ECCENTRICITY   = .0001012
INCLINATION    = 53.1618
RA_OF_ASC_NODE = 236.0661
ARG_OF_PERICENTER = 60.5389
MEAN_ANOMALY   = 299.5721

EPHEMERIS_TYPE = 0
CLASSIFICATION_TYPE = U
NORAD_CAT_ID   = 65908
ELEMENT_SET_NO = 999
REV_AT_EPOCH   = 561
BSTAR          = .1344E-2
MEAN_MOTION_DOT = .75096E-3
MEAN_MOTION_DDOT = 0

CCSDS_OMM_VERS = 2.0
CREATION_DATE  = 
ORIGINATOR     = 

OBJECT_NAME    = STARLINK-35387
OBJECT_ID      = 2025-224AD
CENTER_NAME    = EARTH
REF_FRAME      = TEME
TIME_SYSTEM    = UTC
MEAN_ELEMENT_THEORY = SGP/SGP4

EPOCH          = 2025-11-04T01:35:08.356416
MEAN_MOTION    = 15.49362709
ECCENTRICITY   = .0001285
INCLINATION    = 53.1608
RA_OF_ASC_NODE = 236.0574
ARG_OF_PERICENTER = 102.1805
MEAN_ANOMALY   = 257.9348

EPHEMERIS_TYPE = 0
CLASSIFICATION_TYPE = U
NORAD_CAT_ID   = 65909
ELEMENT_SET_NO = 999
REV_AT_EPOCH   = 557
BSTAR          = .14039E-2
MEAN_MOTION_DOT = .78571E-3
MEAN_MOTION_DDOT = 0

CCSDS_OMM_VERS = 2.0
CREATION_DATE  = 
ORIGINATOR     = 

OBJECT_NAME    = STARLINK-35523
OBJECT_ID      = 2025-225A
CENTER_NAME    = EARTH
REF_FRAME      = TEME
TIME_SYSTEM    = UTC
MEAN_ELEMENT_THEORY = SGP/SGP4

EPOCH          = 2025-11-04T04:00:01.998720
MEAN_MOTION    = 15.49292184
ECCENTRICITY   = .0001022
INCLINATION    = 53.1605
RA_OF_ASC_NODE = 30.7895
ARG_OF_PERICENTER = 92.3215
MEAN_ANOMALY   = 169.1334

EPHEMERIS_TYPE = 0
CLASSIFICATION_TYPE = U
NORAD_CAT_ID   = 65910
ELEMENT_SET_NO = 999
REV_AT_EPOCH   = 522
BSTAR          = -.1294E-3
MEAN_MOTION_DOT = -.7633E-4
MEAN_MOTION_DDOT = 0

CCSDS_OMM_VERS = 2.0
CREATION_DATE  = 
ORIGINATOR     = 

OBJECT_NAME    = STARLINK-35160
OBJECT_ID      = 2025-225B
CENTER_NAME    = EARTH
REF_FRAME      = TEME
TIME_SYSTEM    = UTC
MEAN_ELEMENT_THEORY = SGP/SGP4

EPOCH          = 2025-11-04T04:00:01.998720
MEAN_MOTION    = 15.49285664
ECCENTRICITY   = .0001026
INCLINATION    = 53.1603
RA_OF_ASC_NODE = 30.7862
ARG_OF_PERICENTER = 93.3717
MEAN_ANOMALY   = 169.9966

EPHEMERIS_TYPE = 0
CLASSIFICATION_TYPE = U
NORAD_CAT_ID   = 65911
ELEMENT_SET_NO = 999
REV_AT_EPOCH   = 517
BSTAR          = .1796E-3
MEAN_MOTION_DOT = .9544E-4
MEAN_MOTION_DDOT = 0

